{
    "links": {
        "self": "http://www.neowsapp.com/rest/v1/neo/3653813?api_key=iIulBulltgU6a56xZRHN4H3l9WmuAYTsLGpBGhQ2"
    },
    "id": "3653813",
    "neo_reference_id": "3653813",
    "name": "(2013 WN)",
    "designation": "2013 WN",
    "nasa_jpl_url": "http://ssd.jpl.nasa.gov/sbdb.cgi?sstr=3653813",
    "absolute_magnitude_h": 22.2,
    "estimated_diameter": {
        "kilometers": {
            "estimated_diameter_min": 0.096506147,
            "estimated_diameter_max": 0.2157943048
        },
        "meters": {
            "estimated_diameter_min": 96.5061469579,
            "estimated_diameter_max": 215.7943048444
        },
        "miles": {
            "estimated_diameter_min": 0.059966121,
            "estimated_diameter_max": 0.134088323
        },
        "feet": {
            "estimated_diameter_min": 316.6212271853,
            "estimated_diameter_max": 707.9865871058
        }
    },
    "is_potentially_hazardous_asteroid": false,
    "close_approach_data": [
        {
            "close_approach_date": "2013-11-03",
            "close_approach_date_full": "2013-Nov-03 22:02",
            "epoch_date_close_approach": 1383516120000,
            "relative_velocity": {
                "kilometers_per_second": "6.6056841548",
                "kilometers_per_hour": "23780.4629574544",
                "miles_per_hour": "14776.2548859805"
            },
            "miss_distance": {
                "astronomical": "0.1433624426",
                "lunar": "55.7679901714",
                "kilometers": "21446716.050957262",
                "miles": "13326371.4020117356"
            },
            "orbiting_body": "Earth"
        }
    ],
    "orbital_data": {
        "orbit_id": "13",
        "orbit_determination_date": "2017-04-06 08:43:36",
        "first_observation_date": "2013-11-25",
        "last_observation_date": "2013-12-25",
        "data_arc_in_days": 30,
        "observations_used": 52,
        "orbit_uncertainty": "7",
        "minimum_orbit_intersection": ".144559",
        "jupiter_tisserand_invariant": "3.266",
        "epoch_osculation": "2459000.5",
        "eccentricity": ".5483890664992874",
        "semi_major_axis": "2.443265432498389",
        "inclination": "7.554188061727887",
        "ascending_node_longitude": "258.8810940006006",
        "orbital_period": "1394.936386217237",
        "perihelion_distance": "1.10340538276062",
        "perihelion_argument": "132.9329908525008",
        "aphelion_distance": "3.783125482236158",
        "perihelion_time": "2459378.663561872258",
        "mean_anomaly": "262.4049529289348",
        "mean_motion": ".2580762847374291",
        "equinox": "J2000",
        "orbit_class": {
            "orbit_class_type": "AMO",
            "orbit_class_description": "Near-Earth asteroid orbits similar to that of 1221 Amor",
            "orbit_class_range": "1.017 AU < q (perihelion) < 1.3 AU"
        }
    },
    "is_sentry_object": false
}